{
    "links": {
        "self": "http://www.neowsapp.com/rest/v1/neo/3735452?api_key=iIulBulltgU6a56xZRHN4H3l9WmuAYTsLGpBGhQ2"
    },
    "id": "3735452",
    "neo_reference_id": "3735452",
    "name": "(2015 WP1)",
    "designation": "2015 WP1",
    "nasa_jpl_url": "http://ssd.jpl.nasa.gov/sbdb.cgi?sstr=3735452",
    "absolute_magnitude_h": 23.7,
    "estimated_diameter": {
        "kilometers": {
            "estimated_diameter_min": 0.0483676488,
            "estimated_diameter_max": 0.1081533507
        },
        "meters": {
            "estimated_diameter_min": 48.3676488219,
            "estimated_diameter_max": 108.1533506775
        },
        "miles": {
            "estimated_diameter_min": 0.0300542543,
            "estimated_diameter_max": 0.0672033557
        },
        "feet": {
            "estimated_diameter_min": 158.6865169607,
            "estimated_diameter_max": 354.8338390368
        }
    },
    "is_potentially_hazardous_asteroid": false,
    "close_approach_data": [
        {
            "close_approach_date": "1939-05-10",
            "close_approach_date_full": "1939-May-10 03:34",
            "epoch_date_close_approach": -967148760000,
            "relative_velocity": {
                "kilometers_per_second": "21.8173612916",
                "kilometers_per_hour": "78542.5006496509",
                "miles_per_hour": "48803.2554731123"
            },
            "miss_distance": {
                "astronomical": "0.2873105368",
                "lunar": "111.7637988152",
                "kilometers": "42981044.333836616",
                "miles": "26707182.5205366608"
            },
            "orbiting_body": "Earth"
        },
        {
            "close_approach_date": "1944-06-04",
            "close_approach_date_full": "1944-Jun-04 21:02",
            "epoch_date_close_approach": -807073080000,
            "relative_velocity": {
                "kilometers_per_second": "8.9280880246",
                "kilometers_per_hour": "32141.1168885119",
                "miles_per_hour": "19971.2401021979"
            },
            "miss_distance": {
                "astronomical": "0.2342300654",
                "lunar": "91.1154954406",
                "kilometers": "35040318.873800698",
                "miles": "21773044.5186897124"
            },
            "orbiting_body": "Earth"
        },
        {
            "close_approach_date": "2015-10-29",
            "close_approach_date_full": "2015-Oct-29 11:00",
            "epoch_date_close_approach": 1446116400000,
            "relative_velocity": {
                "kilometers_per_second": "14.1214118285",
                "kilometers_per_hour": "50837.082582586",
                "miles_per_hour": "31588.1861191629"
            },
            "miss_distance": {
                "astronomical": "0.0277237208",
                "lunar": "10.7845273912",
                "kilometers": "4147409.580154696",
                "miles": "2577080.8122829648"
            },
            "orbiting_body": "Earth"
        },
        {
            "close_approach_date": "2093-05-06",
            "close_approach_date_full": "2093-May-06 04:23",
            "epoch_date_close_approach": 3892422180000,
            "relative_velocity": {
                "kilometers_per_second": "24.639210198",
                "kilometers_per_hour": "88701.1567128922",
                "miles_per_hour": "55115.4492919635"
            },
            "miss_distance": {
                "astronomical": "0.3821660412",
                "lunar": "148.6625900268",
                "kilometers": "57171225.749852244",
                "miles": "35524552.3855752072"
            },
            "orbiting_body": "Earth"
        },
        {
            "close_approach_date": "2169-10-23",
            "close_approach_date_full": "2169-Oct-23 10:23",
            "epoch_date_close_approach": 6305422980000,
            "relative_velocity": {
                "kilometers_per_second": "12.1802661439",
                "kilometers_per_hour": "43848.9581182189",
                "miles_per_hour": "27246.0373374011"
            },
            "miss_distance": {
                "astronomical": "0.1056785818",
                "lunar": "41.1089683202",
                "kilometers": "15809290.741900766",
                "miles": "9823437.7481559308"
            },
            "orbiting_body": "Earth"
        }
    ],
    "orbital_data": {
        "orbit_id": "4",
        "orbit_determination_date": "2017-04-06 08:30:29",
        "first_observation_date": "2015-11-18",
        "last_observation_date": "2015-11-22",
        "data_arc_in_days": 4,
        "observations_used": 19,
        "orbit_uncertainty": "8",
        "minimum_orbit_intersection": ".0158304",
        "jupiter_tisserand_invariant": "4.570",
        "epoch_osculation": "2457345.5",
        "eccentricity": ".4619041598843064",
        "semi_major_axis": "1.419266231280507",
        "inclination": "12.5596400524356",
        "ascending_node_longitude": "213.472169322186",
        "orbital_period": "617.5814337497785",
        "perihelion_distance": ".7637012550687189",
        "perihelion_argument": "110.4353930932354",
        "aphelion_distance": "2.074831207492295",
        "perihelion_time": "2457275.967252409429",
        "mean_anomaly": "40.53196512178106",
        "mean_motion": ".582919078078793",
        "equinox": "J2000",
        "orbit_class": {
            "orbit_class_type": "APO",
            "orbit_class_description": "Near-Earth asteroid orbits which cross the Earth’s orbit similar to that of 1862 Apollo",
            "orbit_class_range": "a (semi-major axis) > 1.0 AU; q (perihelion) < 1.017 AU"
        }
    },
    "is_sentry_object": false
}